STARLINK-37406          
1 69199U 26114T   26162.62164963  .00233079  00000+0  11492-2 0  9994
2 69199  53.1582 229.9977 0001134  69.1960 290.9184 15.80941103  3890
STARLINK-37761          
1 69200U 26114U   26162.62089948  .00255180  00000+0  12556-2 0  9995
2 69200  53.1581 229.9916 0001175  52.5446 307.5683 15.80924015  3897
STARLINK-37754          
1 69201U 26114V   26162.61994926  .00032718  00000+0  16851-3 0  9999
2 69201  53.1582 229.9858 0001018  63.6668 296.4459 15.80894645  3891
STARLINK-37649          
1 69202U 26114W   26162.61939692  .00146364  00000+0  73065-3 0  9992
2 69202  53.1583 229.9825 0001061  57.8690 302.2435 15.80930654  3896
STARLINK-37604          
1 69203U 26114X   26162.61864683  .00165551  00000+0  82385-3 0  9994
2 69203  53.1582 229.9772 0001201  42.5996 317.5119 15.80938085  3897
STARLINK-37669          
1 69204U 26114Y   26162.55467816  .00181253  00000+0  89979-3 0  9998
2 69204  53.1584 230.2893 0001237  52.6023 307.5112 15.80943340  3882
STARLINK-37691          
1 69205U 26114Z   26162.55909951  .00178574  00000+0  10090-2 0  9999
2 69205  53.1588 230.3175 0001172  90.5523 269.5633 15.78097845  3887
STARLINK-37671          
1 69206U 26114AA  26162.48995919  .00137588  00000+0  68820-3 0  9996
2 69206  53.1583 230.5959 0001174  67.4082 292.7065 15.80916258  3877
STARLINK-37647          
1 69207U 26114AB  26162.49070766  .00182282  00000+0  90522-3 0  9997
2 69207  53.1585 230.6014 0000952  84.0274 276.0857 15.80932541  3871
STARLINK-37562          
1 69208U 26114AC  26162.66668980 -.00016577  00000+0 -91814-4 0  9999
2 69208  53.1589 229.7210 0001135  74.3121 207.3416 15.78052539  3921
STARLINK-37682          
1 69209U 26114AD  26162.55092757  .00153675  00000+0  76649-3 0  9998
2 69209  53.1584 230.2636 0001034  79.3964 280.7175 15.80925909  3889
STARLINK-37402          
1 69210U 26114AE  26162.55017730  .00200417  00000+0  99244-3 0  9991
2 69210  53.1584 230.2584 0001270  58.8663 301.2484 15.80941217  3885
STARLINK-37613          
1 69211U 26115A   26162.66668980 -.02439979  00000+0 -44037-1 0  9993
2 69211  97.2851 179.7292 0001677  76.1261  49.9401 15.53566078  3808
STARLINK-37713          
1 69212U 26115B   26162.66668980 -.00871191  00000+0 -94177-2 0  9999
2 69212  97.2846 179.8018 0001498  94.3079 210.0609 15.66210098  3803
STARLINK-37716          
1 69213U 26115C   26162.66668980 -.02647213  00000+0 -21296-1 0  9999
2 69213  97.2847 179.8242 0001358  89.5774 269.4375 15.74197415  3801
STARLINK-37620          
1 69214U 26115D   26162.66668980  .00009500  00000+0  17655-3 0  9993
2 69214  97.2850 179.6927 0000706  66.0469 346.7712 15.49121806  3808
STARLINK-37700          
1 69215U 26115E   26162.66668980 -.00001326  00000+0 -22718-4 0  9991
2 69215  97.2844 179.6061 0001381  97.6877 103.3348 15.49198940  3809
STARLINK-37766          
1 69216U 26115F   26162.66668980 -.01581398  00000+0 -11495-1 0  9992
2 69216  97.2847 179.8351 0001417  95.0403 289.7087 15.76413027  3809
STARLINK-37763          
1 69217U 26115G   26162.66668980 -.01099072  00000+0 -94559-2 0  9999
2 69217  97.2848 179.8214 0001065  85.9820 269.1625 15.71924899  3808
STARLINK-37724          
1 69218U 26115H   26162.65939248  .00192722  00000+0  98159-3 0  9991
2 69218  97.2834 179.8346 0001514  67.9862 292.1567 15.80887880  3815
STARLINK-37758          
1 69219U 26115J   26162.65618345  .00181184  00000+0  92446-3 0  9997
2 69219  97.2830 179.8392 0001372  75.6837 284.4584 15.80879355  3814
STARLINK-37201          
1 69220U 26115K   26162.65741618  .00168750  00000+0  86232-3 0  9999
2 69220  97.2835 179.8380 0001463 108.5538 251.5889 15.80878856  3811
STARLINK-37728          
1 69221U 26115L   26162.65500523  .00290202  00000+0  14598-2 0  9991
2 69221  97.2829 179.8414 0002121  53.7466 306.3998 15.80908650  3812
STARLINK-37760          
1 69222U 26115M   26162.59407836  .11669154  00000+0  37744-1 0  9993
2 69222  97.2832 179.7714 0003304 258.8606 101.2293 15.85544915  3801
STARLINK-37759          
1 69223U 26115N   26162.66668980 -.02600691  00000+0 -24395-1 0  9992
2 69223  97.2849 179.8391 0001413  82.2802 313.6097 15.70537262  3800
STARLINK-37725          
1 69224U 26115P   26162.59143596  .00153323  00000+0  78472-3 0  9994
2 69224  97.2831 179.7747 0001894 133.8819 226.2605 15.80884742  3803
STARLINK-37770          
1 69225U 26115Q   26162.65544338  .00045757  00000+0  23798-3 0  9993
2 69225  97.2831 179.8399 0001537  74.1574 285.9864 15.80851440  3816
STARLINK-37736          
1 69226U 26115R   26162.59144125  .00213756  00000+0  10860-2 0  9998
2 69226  97.2827 179.7746 0001746  82.1033 278.0433 15.80887096  3808
STARLINK-37737          
1 69227U 26115S   26162.65274701  .00169066  00000+0  86391-3 0  9997
2 69227  97.2829 179.8433 0001503  64.0798 296.0625 15.80878472  3815
STARLINK-37618          
1 69228U 26115T   26162.66668980 -.02577598  00000+0 -25378-1 0  9998
2 69228  97.2851 179.8462 0001512  79.7807 333.0805 15.69345497  3801
