OBJECT_NAME,OBJECT_ID,EPOCH,MEAN_MOTION,ECCENTRICITY,INCLINATION,RA_OF_ASC_NODE,ARG_OF_PERICENTER,MEAN_ANOMALY,EPHEMERIS_TYPE,CLASSIFICATION_TYPE,NORAD_CAT_ID,ELEMENT_SET_NO,REV_AT_EPOCH,BSTAR,MEAN_MOTION_DOT,MEAN_MOTION_DDOT
STARLINK-37406,2026-114T,2026-06-11T14:55:10.528032,15.80941103,.0001134,53.1582,229.9977,69.1960,290.9184,0,U,69199,999,389,.11492E-2,.233079E-2,0
STARLINK-37761,2026-114U,2026-06-11T14:54:05.715072,15.80924015,.0001175,53.1581,229.9916,52.5446,307.5683,0,U,69200,999,389,.12556E-2,.25518E-2,0
STARLINK-37754,2026-114V,2026-06-11T14:52:43.616064,15.80894645,.0001018,53.1582,229.9858,63.6668,296.4459,0,U,69201,999,389,.16851E-3,.32718E-3,0
STARLINK-37649,2026-114W,2026-06-11T14:51:55.893888,15.80930654,.0001061,53.1583,229.9825,57.8690,302.2435,0,U,69202,999,389,.73065E-3,.146364E-2,0
STARLINK-37604,2026-114X,2026-06-11T14:50:51.086112,15.80938085,.0001201,53.1582,229.9772,42.5996,317.5119,0,U,69203,999,389,.82385E-3,.165551E-2,0
STARLINK-37669,2026-114Y,2026-06-11T13:18:44.193024,15.80943340,.0001237,53.1584,230.2893,52.6023,307.5112,0,U,69204,999,388,.89979E-3,.181253E-2,0
STARLINK-37691,2026-114Z,2026-06-11T13:25:06.197664,15.78097845,.0001172,53.1588,230.3175,90.5523,269.5633,0,U,69205,999,388,.1009E-2,.178574E-2,0
STARLINK-37671,2026-114AA,2026-06-11T11:45:32.474016,15.80916258,.0001174,53.1583,230.5959,67.4082,292.7065,0,U,69206,999,387,.6882E-3,.137588E-2,0
STARLINK-37647,2026-114AB,2026-06-11T11:46:37.141824,15.80932541,.0000952,53.1585,230.6014,84.0274,276.0857,0,U,69207,999,387,.90522E-3,.182282E-2,0
STARLINK-37562,2026-114AC,2026-06-11T16:00:01.998720,15.78052539,.0001135,53.1589,229.7210,74.3121,207.3416,0,U,69208,999,392,-.91814E-4,-.16577E-3,0
STARLINK-37682,2026-114AD,2026-06-11T13:13:20.142048,15.80925909,.0001034,53.1584,230.2636,79.3964,280.7175,0,U,69209,999,388,.76649E-3,.153675E-2,0
STARLINK-37402,2026-114AE,2026-06-11T13:12:15.318720,15.80941217,.000127,53.1584,230.2584,58.8663,301.2484,0,U,69210,999,388,.99244E-3,.200417E-2,0
STARLINK-37613,2026-115A,2026-06-11T16:00:01.998720,15.53566078,.0001677,97.2851,179.7292,76.1261,49.9401,0,U,69211,999,380,-.44037E-1,-.2439979E-1,0
STARLINK-37713,2026-115B,2026-06-11T16:00:01.998720,15.66210098,.0001498,97.2846,179.8018,94.3079,210.0609,0,U,69212,999,380,-.94177E-2,-.871191E-2,0
STARLINK-37716,2026-115C,2026-06-11T16:00:01.998720,15.74197415,.0001358,97.2847,179.8242,89.5774,269.4375,0,U,69213,999,380,-.21296E-1,-.2647213E-1,0
STARLINK-37620,2026-115D,2026-06-11T16:00:01.998720,15.49121806,.0000706,97.2850,179.6927,66.0469,346.7712,0,U,69214,999,380,.17655E-3,.95E-4,0
STARLINK-37700,2026-115E,2026-06-11T16:00:01.998720,15.49198940,.0001381,97.2844,179.6061,97.6877,103.3348,0,U,69215,999,380,-.22718E-4,-.1326E-4,0
STARLINK-37766,2026-115F,2026-06-11T16:00:01.998720,15.76413027,.0001417,97.2847,179.8351,95.0403,289.7087,0,U,69216,999,380,-.11495E-1,-.1581398E-1,0
STARLINK-37763,2026-115G,2026-06-11T16:00:01.998720,15.71924899,.0001065,97.2848,179.8214,85.9820,269.1625,0,U,69217,999,380,-.94559E-2,-.1099072E-1,0
STARLINK-37724,2026-115H,2026-06-11T15:49:31.510272,15.80887880,.0001514,97.2834,179.8346,67.9862,292.1567,0,U,69218,999,381,.98159E-3,.192722E-2,0
STARLINK-37758,2026-115J,2026-06-11T15:44:54.250080,15.80879355,.0001372,97.2830,179.8392,75.6837,284.4584,0,U,69219,999,381,.92446E-3,.181184E-2,0
STARLINK-37201,2026-115K,2026-06-11T15:46:40.757952,15.80878856,.0001463,97.2835,179.8380,108.5538,251.5889,0,U,69220,999,381,.86232E-3,.16875E-2,0
STARLINK-37728,2026-115L,2026-06-11T15:43:12.451872,15.80908650,.0002121,97.2829,179.8414,53.7466,306.3998,0,U,69221,999,381,.14598E-2,.290202E-2,0
STARLINK-37760,2026-115M,2026-06-11T14:15:28.370304,15.85544915,.0003304,97.2832,179.7714,258.8606,101.2293,0,U,69222,999,380,.37744E-1,.11669154E+0,0
STARLINK-37759,2026-115N,2026-06-11T16:00:01.998720,15.70537262,.0001413,97.2849,179.8391,82.2802,313.6097,0,U,69223,999,380,-.24395E-1,-.2600691E-1,0
STARLINK-37725,2026-115P,2026-06-11T14:11:40.066944,15.80884742,.0001894,97.2831,179.7747,133.8819,226.2605,0,U,69224,999,380,.78472E-3,.153323E-2,0
STARLINK-37770,2026-115Q,2026-06-11T15:43:50.308032,15.80851440,.0001537,97.2831,179.8399,74.1574,285.9864,0,U,69225,999,381,.23798E-3,.45757E-3,0
STARLINK-37736,2026-115R,2026-06-11T14:11:40.524000,15.80887096,.0001746,97.2827,179.7746,82.1033,278.0433,0,U,69226,999,380,.1086E-2,.213756E-2,0
STARLINK-37737,2026-115S,2026-06-11T15:39:57.341664,15.80878472,.0001503,97.2829,179.8433,64.0798,296.0625,0,U,69227,999,381,.86391E-3,.169066E-2,0
STARLINK-37618,2026-115T,2026-06-11T16:00:01.998720,15.69345497,.0001512,97.2851,179.8462,79.7807,333.0805,0,U,69228,999,380,-.25378E-1,-.2577598E-1,0
